MALLIGYONG-1            
1 58400U 23179A   23364.15674845  .00006570  00000+0  29229-3 0  9991
2 58400  97.4254 248.4249 0016808 137.7746 222.4787 15.21694912  5862
